NORAD_CAT_ID,OBJECT_NAME,OBJECT_TYPE,EPOCH,MEAN_MOTION,ECCENTRICITY,INCLINATION,RA_OF_ASC_NODE,ARG_OF_PERICENTER,MEAN_ANOMALY,BSTAR,MEAN_MOTION_DOT,MEAN_MOTION_DDOT,TLE_LINE0,TLE_LINE1,TLE_LINE2,SEMIMAJOR_AXIS,PERIOD,APOGEE,PERIGEE,DECAYED
52560.0,STARLINK-3956,PAYLOAD,2022-11-12 20:36:54,15.08852396,0.0001934,53.2154,163.7308,49.8723,310.2438,0.00032145,4.833e-05,0.0,0 STARLINK-3956,1 52560U 22051AD  22316.85896099  .00004833  00000-0  32145-3 0  9992,2 52560  53.2154 163.7308 0001934  49.8723 310.2438 15.08852396 28488,6917.842,95.437,541.045,538.37,0.0
52560.0,STARLINK-3956,PAYLOAD,2022-11-12 23:47:40,15.08854128,0.0001946,53.2154,163.1361,49.907,310.2092,0.00033238,5.008e-05,0.0,0 STARLINK-3956,1 52560U 22051AD  22316.99143953  .00005008  00000-0  33238-3 0  9990,2 52560  53.2154 163.1361 0001946  49.9070 310.2092 15.08854128 28571,6917.837,95.437,541.048,538.356,0.0
52560.0,STARLINK-3956,PAYLOAD,2022-11-13 10:55:22,15.08841429,0.0001938,53.2154,161.0546,51.2995,308.8171,5.2788e-05,5.52e-06,0.0,0 STARLINK-3956,1 52560U 22051AD  22317.45512335  .00000552  00000-0  52788-4 0  9997,2 52560  53.2154 161.0546 0001938  51.2995 308.8171 15.08841429 28645,6917.876,95.437,541.082,538.4,0.0
52560.0,STARLINK-3956,PAYLOAD,2022-11-13 18:52:19,15.08823781,0.0001812,53.2168,159.5684,46.6031,313.5112,-1.0022e-05,-4.48e-06,0.0,0 STARLINK-3956,1 52560U 22051AD  22317.78633671 -.00000448  00000-0 -10022-4 0  9991,2 52560  53.2168 159.5684 0001812  46.6031 313.5112 15.08823781 28699,6917.93,95.439,541.048,538.5409999999998,0.0
52560.0,STARLINK-3956,PAYLOAD,2022-11-14 10:46:10,15.08831756,0.0001849,53.2167,156.5945,49.1731,310.9422,-2.5301e-05,-6.91e-06,0.0,0 STARLINK-3956,1 52560U 22051AD  22318.44873553 -.00000691  00000-0 -25301-4 0  9996,2 52560  53.2167 156.5945 0001849  49.1731 310.9422 15.08831756 28720,6917.906,95.438,541.05,538.491,0.0
52560.0,STARLINK-3956,PAYLOAD,2022-11-14 17:07:43,15.08833459,0.0001862,53.2166,155.4051,49.3702,310.7452,-4.7694e-05,-1.047e-05,0.0,0 STARLINK-3956,1 52560U 22051AD  22318.71369620 -.00001047  00000-0 -47694-4 0  9996,2 52560  53.2166 155.4051 0001862  49.3702 310.7452 15.08833459 28767,6917.9,95.438,541.053,538.477,0.0
52560.0,STARLINK-3956,PAYLOAD,2022-11-14 20:18:29,15.08833406,0.0001854,53.2166,154.8103,49.7531,310.3623,-4.6728e-05,-1.032e-05,0.0,0 STARLINK-3956,1 52560U 22051AD  22318.84617651 -.00001032  00000-0 -46728-4 0  9991,2 52560  53.2166 154.8103 0001854  49.7531 310.3623 15.08833406 28851,6917.901,95.438,541.048,538.4830000000002,0.0
52560.0,STARLINK-3956,PAYLOAD,2022-11-15 09:01:34,15.08831308,0.0001828,53.2165,152.4309,47.4988,312.6158,4.6599e-05,4.53e-06,0.0,0 STARLINK-3956,1 52560U 22051AD  22319.37609679  .00000453  00000-0  46599-4 0  9991,2 52560  53.2165 152.4309 0001828  47.4988 312.6158 15.08831308 28862,6917.906999999997,95.438,541.0369999999998,538.507,0.0
52560.0,STARLINK-3956,PAYLOAD,2022-11-15 15:23:06,15.08849002,0.0001862,53.2164,151.2414,45.1647,314.9496,-0.00013812,-2.486e-05,0.0,0 STARLINK-3956,1 52560U 22051AD  22319.64105254 -.00002486  00000-0 -13812-3 0  9992,2 52560  53.2164 151.2414 0001862  45.1647 314.9496 15.08849002 28972,6917.853,95.437,541.006,538.43,0.0
52560.0,STARLINK-3956,PAYLOAD,2022-11-15 18:33:53,15.08832316,0.0001871,53.2164,150.6467,50.8517,309.2641,0.00011475,1.538e-05,0.0,0 STARLINK-3956,1 52560U 22051AD  22319.77353750  .00001538  00000-0  11475-3 0  9990,2 52560  53.2164 150.6467 0001871  50.8517 309.2641 15.08832316 28993,6917.904,95.438,541.063,538.475,0.0
52560.0,STARLINK-3956,PAYLOAD,2022-11-15 23:20:03,15.08830831,0.0001881,53.2164,149.7547,49.3248,310.7908,0.00015815,2.229e-05,0.0,0 STARLINK-3956,1 52560U 22051AD  22319.97225846  .00002229  00000-0  15815-3 0  9996,2 52560  53.2164 149.7547 0001881  49.3248 310.7908 15.08830831 28955,6917.908,95.438,541.075,538.472,0.0
52560.0,STARLINK-3956,PAYLOAD,2022-11-16 20:00:03,15.08840955,0.0001902,53.2165,145.8888,50.9316,309.1845,0.00015354,2.156e-05,0.0,0 STARLINK-3956,1 52560U 22051AD  22320.83337565  .00002156  00000-0  15354-3 0  9992,2 52560  53.2165 145.8888 0001902  50.9316 309.1845 15.08840955 29152,6917.877,95.437,541.058,538.427,0.0
52560.0,STARLINK-3956,PAYLOAD,2022-11-17 15:04:41,15.08843438,0.0001933,53.2165,142.3204,51.0842,309.0322,8.897799999999999e-05,1.128e-05,0.0,0 STARLINK-3956,1 52560U 22051AD  22321.62825535  .00001128  00000-0  88978-4 0  9990,2 52560  53.2165 142.3204 0001933  51.0842 309.0322 15.08843438 29200,6917.87,95.437,541.072,538.398,0.0
52560.0,STARLINK-3956,PAYLOAD,2022-11-17 19:50:51,15.08837261,0.0001883,53.2166,141.4282,51.955,308.1612,2.7312e-05,1.47e-06,0.0,0 STARLINK-3956,1 52560U 22051AD  22321.82697991  .00000147  00000-0  27312-4 0  9990,2 52560  53.2166 141.4282 0001883  51.9550 308.1612 15.08837261 29306,6917.889,95.438,541.056,538.451,0.0
52560.0,STARLINK-3956,PAYLOAD,2022-11-18 11:44:42,15.08838994,0.0001869,53.2171,138.4531,53.6596,306.4569,-1.8603e-06,-3.18e-06,0.0,0 STARLINK-3956,1 52560U 22051AD  22322.48938034 -.00000318  00000-0 -18603-5 0  9995,2 52560  53.2171 138.4531 0001869  53.6596 306.4569 15.08838994 29337,6917.8830000000025,95.438,541.0409999999998,538.456,0.0
52560.0,STARLINK-3956,PAYLOAD,2022-11-18 18:06:14,15.08842457,0.0001883,53.2166,137.2648,53.0634,307.053,1.4247e-05,-6.1e-07,0.0,0 STARLINK-3956,1 52560U 22051AD  22322.75433716 -.00000061  00000-0  14247-4 0  9995,2 52560  53.2166 137.2648 0001883  53.0634 307.0530 15.08842457 29378,6917.873000000001,95.437,541.0409999999998,538.435,0.0
52560.0,STARLINK-3956,PAYLOAD,2022-11-19 06:49:19,15.08845032,0.0001932,53.2167,134.8861,51.851000000000006,308.2656,3.3197e-05,2.4e-06,0.0,0 STARLINK-3956,1 52560U 22051AD  22323.28425432  .00000240  00000-0  33197-4 0  9993,2 52560  53.2167 134.8861 0001932  51.8510 308.2656 15.08845032 29456,6917.865,95.437,541.067,538.393,0.0
52560.0,STARLINK-3956,PAYLOAD,2022-11-19 17:57:01,15.08843137,0.0001938,53.2167,132.8047,51.6692,308.4475,0.00012976,1.778e-05,0.0,0 STARLINK-3956,1 52560U 22051AD  22323.74793177  .00001778  00000-0  12976-3 0  9996,2 52560  53.2167 132.8047 0001938  51.6692 308.4475 15.08843137 29595,6917.871,95.437,541.076,538.395,0.0
52560.0,STARLINK-3956,PAYLOAD,2022-11-20 11:26:15,15.08848303,0.000198,53.2166,129.5335,53.3323,306.785,0.00013302,1.83e-05,0.0,0 STARLINK-3956,1 52560U 22051AD  22324.47656679  .00001830  00000-0  13302-3 0  9995,2 52560  53.2166 129.5335 0001980  53.3323 306.7850 15.08848303 29637,6917.855,95.437,541.09,538.35,0.0
52560.0,STARLINK-3956,PAYLOAD,2022-11-20 17:47:48,15.08843232,0.0001991,53.2165,128.3437,55.1191,304.9988,8.3433e-05,1.04e-05,0.0,0 STARLINK-3956,1 52560U 22051AD  22324.74153143  .00001040  00000-0  83433-4 0  9999,2 52560  53.2165 128.3437 0001991  55.1191 304.9988 15.08843232 29673,6917.871,95.437,541.113,538.3580000000002,0.0
52560.0,STARLINK-3956,PAYLOAD,2022-11-21 11:17:03,15.08840518,0.0001918,53.2171,125.0734,51.8179,308.2986,1.0901e-05,-1.15e-06,0.0,0 STARLINK-3956,1 52560U 22051AD  22325.47017471 -.00000115  00000-0  10901-4 0  9996,2 52560  53.2171 125.0734 0001918  51.8179 308.2986 15.08840518 29851,6917.879,95.438,541.071,538.4169999999998,0.0
52560.0,STARLINK-3956,PAYLOAD,2022-11-21 17:38:35,15.08848386,0.0002101,53.2171,123.8836,37.9018,322.2122,-2.7086e-05,-7.19e-06,0.0,0 STARLINK-3956,1 52560U 22051AD  22325.73512959 -.00000719  00000-0 -27086-4 0  9999,2 52560  53.2171 123.8836 0002101  37.9018 322.2122 15.08848386 29828,6917.855,95.437,541.173,538.266,0.0
52560.0,STARLINK-3956,PAYLOAD,2022-11-22 17:29:22,15.0883149,0.0001948,53.2173,119.4229,50.8477,309.2688,3.0968e-05,2.05e-06,0.0,0 STARLINK-3956,1 52560U 22051AD  22326.72873746  .00000205  00000-0  30968-4 0  9994,2 52560  53.2173 119.4229 0001948  50.8477 309.2688 15.08831490 30044,6917.906,95.438,541.119,538.424,0.0
52560.0,STARLINK-3956,PAYLOAD,2022-11-23 12:34:01,15.08830737,0.0001928,53.2174,115.8544,52.31,307.8067,-4.4582e-05,-9.97e-06,0.0,0 STARLINK-3956,1 52560U 22051AD  22327.52362451 -.00000997  00000-0 -44582-4 0  9996,2 52560  53.2174 115.8544 0001928  52.3100 307.8067 15.08830737 30096,6917.909000000002,95.438,541.107,538.44,0.0
52560.0,STARLINK-3956,PAYLOAD,2022-11-24 12:24:48,15.08832646,0.0001936,53.2171,111.3948,53.0978,307.0191,8.1741e-05,1.013e-05,0.0,0 STARLINK-3956,1 52560U 22051AD  22328.51722337  .00001013  00000-0  81741-4 0  9995,2 52560  53.2171 111.3948 0001936  53.0978 307.0191 15.08832646 30318,6917.903,95.438,541.107,538.429,0.0
52560.0,STARLINK-3956,PAYLOAD,2022-11-24 18:46:20,15.0883651,0.0001977,53.2175,110.2048,51.1229,308.994,0.00010531,1.388e-05,0.0,0 STARLINK-3956,1 52560U 22051AD  22328.78218161  .00001388  00000-0  10531-3 0  9992,2 52560  53.2175 110.2048 0001977  51.1229 308.9940 15.08836510 30286,6917.891,95.438,541.124,538.388,0.0
52560.0,STARLINK-3956,PAYLOAD,2022-11-25 02:43:15,15.0883948,0.0001889,53.2177,108.7183,51.0671,309.0489,0.00012232,1.659e-05,0.0,0 STARLINK-3956,1 52560U 22051AD  22329.11337930  .00001659  00000-0  12232-3 0  9997,2 52560  53.2177 108.7183 0001889  51.0671 309.0489 15.08839480 30405,6917.882,95.438,541.054,538.44,0.0
52560.0,STARLINK-3956,PAYLOAD,2022-11-25 09:04:48,15.08839377,0.0001855,53.218,107.5283,50.8153,309.3003,0.0001522,2.135e-05,0.0,0 STARLINK-3956,1 52560U 22051AD  22329.37833844  .00002135  00000-0  15220-3 0  9990,2 52560  53.2180 107.5283 0001855  50.8153 309.3003 15.08839377 30378,6917.882,95.438,541.031,538.464,0.0
52560.0,STARLINK-3956,PAYLOAD,2022-11-25 18:37:07,15.08844692,0.0002129,53.217,105.7469,43.442,316.6739,0.00012877,1.762e-05,0.0,0 STARLINK-3956,1 52560U 22051AD  22329.77577698  .00001762  00000-0  12877-3 0  9996,2 52560  53.2170 105.7469 0002129  43.4420 316.6739 15.08844692 30433,6917.866,95.437,541.2040000000002,538.258,0.0
